C/2011 K1 (Schwartz-Holvorcem),e,122.6067,70.6358,166.8853,3473,0.0000048,0.99902929,0.0000,04/20.1529/2011,2000,g 12.0,4.0
# From MPEC 2016-N16
C/2011 KP36 (Spacewatch),e,18.9868,173.4004,180.5938,38.40980,0.0041404,0.87286308,0.1662,07/06.0/2016,2000,g  4.5,4.0
# From MPC 83518
C/2011 L1 (McNaught),e,65.4904,252.2252,294.4155,11.02820,0.0269121,0.79730538,54.5211,07/06.0/2016,2000,g 11.0,4.0
# From MPC 78588
C/2011 L2 (McNaught),e,104.3216,131.3832,257.0023,6139,0.0000020,0.99968265,0.0000,10/30.1490/2011,2000,g 12.5,4.0
# From MPC 77405
C/2011 L3 (McNaught),e,87.1607,307.7484,27.6274,978.0732,0.0000322,0.99803316,0.0000,08/08.5698/2011,2000,g 12.5,4.0
# From MPC 94278
C/2011 L4 (PANSTARRS),h,03/09.9035/2013,84.0225,65.8717,333.6706,1.000005,0.302575,2000,5.5,4.0
# From MPC 82718
C/2011 L6 (Boattini),e,171.4425,214.4263,331.3560,9824,0.0000010,0.99930909,0.0000,01/17.9388/2011,2000,g  9.0,4.0
# From MPC 75714
C/2011 M1 (LINEAR),h,09/06.5116/2011,70.1582,324.7305,119.7763,1.002465,0.904635,2000,12.0,4.0
# From MPC 87913
P/2011 N1 (ASH),e,35.6888,77.6427,330.6230,6.260623,0.0629184,0.54388730,94.3961,07/06.0/2016,2000,g 11.5,4.0
# From MPC 75714
P/2011 NO1 (Elenin),e,15.2524,296.0335,263.5922,5.519579,0.0760055,0.77615114,151.3522,07/06.0/2016,2000,g 15.0,4.0
# From MPC 76569
C/2011 N2 (McNaught),e,33.7090,273.9292,356.9329,1283,0.0000215,0.99800957,0.0000,10/18.9470/2011,2000,g 11.5,4.0
# From MPC 87476
C/2011 O1 (LINEAR),e,76.5465,89.7923,232.3393,699.2647,0.0000533,0.99443679,0.0000,08/17.7071/2012,2000,g  7.0,4.0
# From MPC 78186
P/2011 P1 (McNaught),e,5.6449,4.3057,349.1590,7.493847,0.0480449,0.32402886,104.9916,07/06.0/2016,2000,g  9.0,4.0
# From MPC 84931
C/2011 P2 (PANSTARRS),e,9.0052,203.9832,75.8944,9.712262,0.0325629,0.36897069,69.2881,07/06.0/2016,2000,g  8.5,4.0
# From MPC 79867
C/2011 Q1 (PANSTARRS),e,94.9009,142.2309,135.8242,3988,0.0000039,0.99830251,0.0000,06/29.1916/2011,2000,g  9.5,4.0
# From MPC 79342
C/2011 Q2 (McNaught),e,37.1957,287.1239,34.8588,850.2406,0.0000398,0.99840673,0.0000,01/17.8077/2012,2000,g 10.0,4.0
# From MPC 77806
P/2011 Q3 (McNaught),e,6.0512,32.0507,311.0987,4.968026,0.0890078,0.53218176,160.5904,07/06.0/2016,2000,g 13.5,4.0
# From MPC 79342
C/2011 Q4 (SWAN),e,147.8919,252.0430,1.8615,41.16223,0.0037321,0.97282554,0.0000,09/18.9177/2011,2000,g 12.5,4.0
# From MPC 88325
C/2011 R1 (McNaught),e,116.1641,221.3309,308.7913,14448,0.0000006,0.99985597,0.0000,10/18.8395/2012,2000,g  6.5,4.0
# From MPC 90269
P/2011 R3 (Novichonok-Gerke),e,19.2555,190.3908,224.1590,4.813843,0.0933182,0.26358316,145.8773,07/06.0/2016,2000,g 11.0,4.0
# From MPC 98558
P/2011 S1 (Gibbs),e,2.6822,218.9223,193.5528,8.626950,0.0388972,0.20095815,26.3974,07/06.0/2016,2000,g  8.0,4.0
# From MPC 80897
C/2011 S2 (Kowalski),e,17.5694,288.0476,192.3233,16.44626,0.0147776,0.93190739,25.3398,07/06.0/2016,2000,g 15.5,4.0
# From MPC 78186
P/2011 U1 (PANSTARRS),e,15.2422,134.9809,353.3704,4.053087,0.1207884,0.41747208,178.2775,07/06.0/2016,2000,g 14.5,4.0
# From MPC 93583
P/2011 U2 (Bressi),e,9.7081,265.1832,140.5507,5.180033,0.0835998,0.08737174,142.8500,07/06.0/2016,2000,g 10.0,4.0
# From MPC 78186
C/2011 U3 (PANSTARRS),e,116.7202,228.2154,287.7015,2499,0.0000079,0.99957152,0.0000,06/03.2650/2012,2000,g 14.0,4.0
# From MPC 79022
P/2011 UA134 (Spacewatch-PANSTARRS),e,10.5006,40.6337,32.5580,5.594727,0.0744793,0.63064839,124.7288,07/06.0/2016,2000,g 17.5,4.0
# From MPC 88325
C/2011 UF305 (LINEAR),e,94.0101,297.5014,122.0137,3563,0.0000046,0.99939867,0.0000,07/21.2797/2012,2000,g  9.0,4.0
# From MPC 77406
P/2011 V1 (Boattini),e,7.3313,47.4091,269.1854,3.838758,0.1310443,0.55662256,253.2019,07/06.0/2016,2000,g 15.5,4.0
# From MPC 79022
P/2011 VJ5 (Lemmon),e,3.9753,169.9198,315.2772,3.404379,0.1569087,0.55726879,262.0927,07/06.0/2016,2000,g 17.5,4.0
# From MPC 82718
P/2011 W1 (PANSTARRS),e,3.7172,161.8287,282.7979,4.657426,0.0980585,0.28644506,159.5362,07/06.0/2016,2000,g 11.5,4.0
# From MPC 80897
P/2011 W2 (Rinner),e,13.7589,231.9821,221.3026,3.805492,0.1327663,0.39295010,226.2325,07/06.0/2016,2000,g 13.0,4.0
# From MPC 77807
C/2011 W3 (Lovejoy),e,134.8295,327.2577,54.2201,71.07517,0.0016449,0.99991542,0.0000,12/14.8437/2011,2000,g 14.5,4.0
# From MPC 79342
P/2011 Y2 (Boattini),e,6.3591,309.5910,131.8533,6.237713,0.0632654,0.71118104,99.2462,07/06.0/2016,2000,g 15.0,4.0
# From MPC 79342
C/2011 Y3 (Boattini),e,26.5164,84.8449,340.6848,11.79097,0.0243433,0.70250496,43.3658,07/06.0/2016,2000,g  8.0,4.0
# From MPC 93583
C/2012 A1 (PANSTARRS),h,12/04.3461/2013,120.9245,277.9958,192.0827,1.002023,7.605216,2000,6.0,4.0
# From MPC 91611
C/2012 A2 (LINEAR),e,125.9034,191.4251,101.7330,1204,0.0000236,0.99706301,0.0000,11/05.7808/2012,2000,g  8.5,4.0
# From MPC 80898
P/2012 A3 (SOHO),e,11.4574,176.4034,217.7425,2.570447,0.2391615,0.77545655,28.3423,07/06.0/2016,2000,g 17.0,4.0
# From MPC 94669
P/2012 B1 (PANSTARRS),e,7.6231,36.1593,162.3514,6.509522,0.0593445,0.41207252,63.9634,07/06.0/2016,2000,g  9.0,4.0
# From MPC 82719
C/2012 B3 (La Sagra),e,106.9991,252.9796,50.7647,4239,0.0000036,0.99916426,0.0000,12/05.8602/2011,2000,g 10.0,4.0
# From MPC 83519
C/2012 BJ98 (Lemmon),e,2.6369,124.0200,73.0057,17.21523,0.0137986,0.87474791,19.0964,07/06.0/2016,2000,g 12.5,4.0
# From MPC 89309
C/2012 C1 (McNaught),e,96.2563,300.6300,279.8922,2787,0.0000067,0.99826467,0.0000,02/04.9957/2013,2000,g  7.5,4.0
# From MPC 80898
C/2012 C2 (Bruenjes),h,03/13.2200/2012,162.7948,117.9995,62.6207,1.002907,0.798179,2000,17.0,4.0
# From MPC 78590
P/2012 C3 (PANSTARRS),e,9.0920,135.3677,344.9542,9.748681,0.0323806,0.63011148,359.9758,10/06.0/2011,2000,g 13.0,4.0
# From MPC 84022
C/2012 CH17 (MOSS),e,27.7494,125.9270,137.9004,2348,0.0000087,0.99945065,0.0000,09/28.6439/2012,2000,g 11.0,4.0
# From MPC 84022
C/2012 E1 (Hill),e,122.5633,286.3057,48.7871,1103,0.0000269,0.99319899,0.0000,06/30.9013/2011,2000,g  6.5,4.0
# From MPC 79023
C/2012 E2 (SWAN),p,03/15.0314/2012,144.2218,83.3435,0.006952,7.7078,2000,10.0,4.0
# From MPC 82318
C/2012 E3 (PANSTARRS),e,105.5682,5.4984,103.4812,208.2668,0.0003279,0.98160115,0.0000,05/11.0656/2011,2000,g 10.0,4.0
# From MPC 79868
C/2012 F1 (Gibbs),e,159.5553,130.3131,300.8491,72.03264,0.0016122,0.96443339,2.5800,07/06.0/2016,2000,g 14.0,4.0
# From MPC 84931
P/2012 F2 (PANSTARRS),e,14.7358,227.0919,33.0972,6.322540,0.0619964,0.54258019,73.3368,07/06.0/2016,2000,g 12.0,4.0
# From MPEC 2016-M22
C/2012 F3 (PANSTARRS),h,04/06.7277/2015,11.3551,164.6115,104.0226,1.002472,3.456811,2000,6.5,4.0
# From MPC 90766
C/2012 F6 (Lemmon),e,82.6151,332.7207,304.8677,417.6431,0.0001155,0.99825885,0.0000,03/24.6527/2013,2000,g 10.0,4.0
# From MPC 79344
P/2012 G1 (PANSTARRS),e,11.6925,282.5440,286.1149,4.172871,0.1156250,0.38072240,359.9500,06/01.0/2012,2000,g 15.0,4.0
# From MPC 80046
C/2012 H2 (McNaught),e,92.7926,184.0584,295.9531,16.10335,0.0152521,0.89303150,23.2639,07/06.0/2016,2000,g 15.5,4.0
# From MPC 89726
C/2012 J1 (Catalina),h,12/06.4965/2012,34.0927,235.1106,147.4064,1.001606,3.162226,2000,8.0,4.0
# From MPC 10027
C/2012 K1 (PANSTARRS),h,08/27.7543/2014,142.4171,317.7475,203.1296,1.000440,1.054693,2000,5.6,3.2
# From MPC 80898
P/2012 K3 (Gibbs),e,13.1989,125.8760,172.3303,3.619631,0.1431224,0.42401491,197.0743,07/06.0/2016,2000,g 15.0,4.0
# From MPC 88326
C/2012 K5 (LINEAR),e,92.8322,279.1517,139.3561,689.5547,0.0000544,0.99833908,0.0000,11/28.3606/2012,2000,g 12.0,4.0
# From MPC 94278
C/2012 K6 (McNaught),e,135.2206,206.9089,338.8641,1454,0.0000178,0.99769091,0.0000,05/20.8314/2013,2000,g  8.5,4.0
# From MPC100577
C/2012 K8 (Lemmon),e,106.1145,312.8017,75.8754,118508,0.0000000,0.99994545,0.0000,08/19.4452/2014,2000,g  6.0,4.0
# From MPC 88326
C/2012 L1 (LINEAR),e,87.2361,271.8326,140.2401,611.0921,0.0000652,0.99629558,0.0000,12/24.8578/2012,2000,g 10.5,4.0
# From MPC 88326
C/2012 L2 (LINEAR),e,70.9340,270.3267,205.8586,633.2309,0.0000619,0.99761163,0.0000,05/09.1774/2013,2000,g 10.0,4.0
# From MPC 84023
C/2012 L3 (LINEAR),e,134.1450,53.4443,106.9277,301.2969,0.0001885,0.98990912,0.0000,06/11.2647/2012,2000,g 13.0,4.0
# From MPC 96864
C/2012 LP26 (Palomar),e,25.3790,153.9878,145.1404,41817,0.0000001,0.99984371,0.0000,08/16.4564/2015,2000,g  6.5,4.0
# From MPC 88326
P/2012 NJ (La Sagra),e,84.3945,315.7528,338.2929,8.458467,0.0400651,0.84763723,59.4819,07/06.0/2016,2000,g 14.5,4.0
# From MPC 84625
C/2012 OP (Siding Spring),e,114.8290,267.3195,351.3195,711.5203,0.0000519,0.99493295,0.0000,12/03.8209/2012,2000,g 13.5,2.0
# From MPC 81470
P/2012 O1 (McNaught),e,7.4485,93.0010,237.6369,3.523497,0.1490195,0.60008133,215.9651,07/06.0/2016,2000,g 17.5,4.0
# From MPC 80899
P/2012 O2 (McNaught),e,24.5041,120.7479,183.4635,3.616164,0.1433283,0.53318643,211.7301,07/06.0/2016,2000,g 17.0,4.0
# From MPC 82720
P/2012 O3 (McNaught),e,16.5769,336.4084,344.6829,4.580967,0.1005237,0.64540223,143.1119,07/06.0/2016,2000,g 16.5,4.0
# From MPC 90767
C/2012 Q1 (Kowalski),e,45.2320,184.4298,139.0487,25.99418,0.0074369,0.63556317,11.9959,07/06.0/2016,2000,g  4.0,4.0
# From MPC 89726
C/2012 S1 (ISON),h,11/28.4628/2013,62.3900,295.6655,345.6317,1.000261,0.012833,2000,8.5,3.2
# From MPC 82720
P/2012 S2 (La Sagra),e,8.6497,51.5040,312.5221,4.399916,0.1067917,0.69275789,151.6864,07/06.0/2016,2000,g 17.0,4.0
# From MPC 88327
C/2012 S3 (PANSTARRS),e,112.9424,121.2889,183.6738,6589,0.0000018,0.99964982,0.0000,08/30.6124/2013,2000,g 10.0,4.0
# From MPC 88327
C/2012 S4 (PANSTARRS),h,06/27.7495/2013,126.5605,173.1195,163.5528,1.000084,4.344238,2000,8.5,4.0
# From MPC 82720
P/2012 SB6 (Lemmon),e,11.0732,9.1219,12.1447,3.884054,0.1287586,0.39239088,172.5866,07/06.0/2016,2000,g 14.0,4.0
# From MPC 88694
P/2012 T1 (PANSTARRS),e,11.0576,85.7273,299.9775,3.149024,0.1763762,0.23733467,246.2323,07/06.0/2016,2000,g 15.0,4.0
# From MPC 82320
P/2012 T2 (PANSTARRS),e,12.5544,73.7438,310.9967,5.746647,0.0715455,0.16041099,83.5124,07/06.0/2016,2000,g 10.0,4.0
# From MPC 80900
